0 FENGYUN 1C DEB
1 30652U 99025APJ 13281.48533537  .00000236  00000-0  16936-3 0  7733
2 30652 099.0569 262.6996 0009557 095.5401 024.4974 14.06635071341366
0 FENGYUN 1C DEB
1 30652U 99025APJ 13282.68108513  .00000126  00000-0  10287-3 0  7740
2 30652 099.0569 263.8965 0009573 092.5050 319.3356 14.06637029341534
0 FENGYUN 1C DEB
1 30652U 99025APJ 13284.18993802  .00000015  00000-0  35885-4 0  7750
2 30652 099.0569 265.4068 0009585 088.6878 039.6095 14.06638777341749
0 FENGYUN 1C DEB
1 30652U 99025APJ 13285.53846659 -.00000099  00000-0 -32387-4 0  7766
2 30652 099.0569 266.7566 0009562 085.2729 028.0717 14.06639686341933
0 FENGYUN 1C DEB
1 30652U 99025APJ 13286.81965519 -.00000119  00000-0 -44362-4 0  7775
2 30652 099.0570 268.0390 0009554 082.0871 035.4969 14.06639893342111
0 FENGYUN 1C DEB
1 30652U 99025APJ 13288.17347590 -.00000085  00000-0 -24331-4 0  7786
2 30652 099.0572 269.3940 0009535 078.7513 050.6736 14.06640086342300
0 FENGYUN 1C DEB
1 30652U 99025APJ 13289.52193369 -.00000077  00000-0 -19017-4 0  7796
2 30652 099.0574 270.7435 0009492 075.3990 038.7273 14.06639701342496
0 FENGYUN 1C DEB
1 30652U 99025APJ 13290.64993700  .00000021  00000-0  39911-4 0  7802
2 30652 099.0577 271.8725 0009441 072.5656 350.5180 14.06638977342659
0 FENGYUN 1C DEB
1 30652U 99025APJ 13291.86099951  .00000134  00000-0  10760-3 0  7818
2 30652 099.0579 273.0845 0009386 069.5220 002.8897 14.06638101342829
0 FENGYUN 1C DEB
1 30652U 99025APJ 13292.92422524  .00000248  00000-0  17669-3 0  7824
2 30652 099.0581 274.1487 0009334 066.8267 346.6923 14.06637501342978
0 FENGYUN 1C DEB
1 30652U 99025APJ 13294.20703943  .00000352  00000-0  23949-3 0  7839
2 30652 099.0584 275.4327 0009285 063.5661 002.4200 14.06637394343151
0 FENGYUN 1C DEB
1 30652U 99025APJ 13295.42904258  .00000419  00000-0  27977-3 0  7846
2 30652 099.0584 276.6559 0009234 060.5137 070.1654 14.06637924343323
